#dP2023  7  7  0  0  0.00000000      96 __u+U ITR00 EXT  IAC
## 2269 432000.00000000   900.00000000 60132 0.0000000000000
+  117   C06C07C08C09C10C11C12C13C14C19C20C21C22C23C24C25C26
+        C27C28C29C30C32C33C34C35C36C37C38C39C40C41C42C43C44
+        C45C46E02E03E04E05E07E08E09E10E11E12E13E14E15E18E19
+        E21E24E25E26E27E30E31E34E36G01G02G03G04G05G06G07G08
+        G09G10G11G12G13G14G15G16G17G18G19G20G21G22G23G24G25
+        G26G27G28G29G30G31G32J02J03J04R01R02R03R04R05R07R08
+        R09R11R12R13R14R15R16R17R18R19R20R21R22R24R25  0  0
++        10 10 11 10 10 10  8  9  9  8  8  9  9  7  9  7  7
++         8  9  9  8  9  8  8  9  9  8 10  8 10  8 10  8  9
++         8  8  8  8  7  8  7  7  8  7  8  7  8  9  8  8  7
++         8  8  8  9  8  8  8  8  8  8  8  7  7  9  8  8  9
++         8  7  8  7  7  8  7  8  8  7  7  8  8  7  8  7  7
++         8  8  7  9  8  7  7  8  9  9 10  9  7  9  8  9  8
++         8  8  7  9  9  8  9  8  7 10  9  8  7  8 10  0  0
%c M  cc GPS ccc cccc cccc cccc cccc ccccc ccccc ccccc ccccc
%c cc cc ccc ccc cccc cccc cccc cccc ccccc ccccc ccccc ccccc
%f  0.0000000  0.000000000  0.00000000000  0.000000000000000
%f  0.0000000  0.000000000  0.00000000000  0.000000000000000
%i    0    0    0    0      0      0      0      0         0
%i    0    0    0    0      0      0      0      0         0
/* IAC                                ULTRA-RAPID PREDICTION
/* S/V CLOCKS ARE ALIGNED TO GNSS TIME                      
/* G:C1WC2W R:C1PC2P E:C1XC5X C:C2IC6I J:C1CC2S             
/* PCV:IGS20_2247 OL/AL:FES2004  NONE     YN ORB:CoN CLK:CoN
*  2023 07 07  0  0  0.00000000
PC06  -3223.731978  35369.731388 -22463.870958   -164.545961
PC07  -9808.359453  26581.159100  31257.658517   -283.437608
PC08 -17304.310676  36306.453144 -12996.285611    436.787682
PC09   3764.316920  39366.307280 -13340.078956    447.373508
PC10  -2976.005843  27355.492779  32230.564361   -106.949993
PC11  12880.009932  -8367.292290 -23238.466633    712.607358
PC12  20204.041553  10615.726818 -16036.280152    768.045083
PC13 -11464.966409  36396.018479 -18089.835661    310.566891
PC14  23463.614638 -10149.714451  11277.194526    523.737603
PC19 -15542.532549  14107.486868 -18353.593505   -935.032209
PC20 -27034.198917   5504.552690  -4060.291317    453.756139
PC21  23120.747690   7183.632741 -13890.574018   -931.539604
PC22   5543.842594  15055.076481 -22840.062881   -407.847818
PC23   1334.702678 -24901.086004 -12514.164968   -954.312653
PC24  18743.282943  -8280.105384  18930.682076    144.284990
PC25  13170.539911 -24311.286041   3695.578001    162.555334
PC26  13074.270088  10389.753167  22349.556962   -145.108804
PC27 -19889.150979 -17378.176067   8996.971887    165.836140
PC28 -11083.441791 -24550.754943  -7280.133782    123.498561
PC29  -5249.554304  17448.167635  21127.855054    143.812360
PC30 -18568.968498   -334.587656  20822.336395     -1.947710
PC32 -23075.439991  -7091.535599  13996.860267   -541.425551
PC33  15585.901726 -14208.287611  18287.543016   -908.335921
PC34  17969.539055  -1105.657259 -21333.234861    209.141971
PC35  11612.592841  24161.096178   7680.719449    593.666201
PC36 -14118.090588  23665.233016  -4390.081001   -343.232736
PC37 -12253.311059 -11670.471091 -22168.931183   -790.713292
PC38 -21001.923894  36337.925225  -4802.223491     89.895092
PC39  -6590.112877  30675.757232 -27993.397530     -3.692907
PC40 -16059.730732  19993.311800  33415.600215    -28.574934
PC41  -4748.931596 -15242.844379  22937.144365   -907.269920
PC42  27386.040869  -4732.161783   2741.166680   -621.706626
PC43   6104.544528 -16894.416307 -21373.283993     29.525225
PC44  20542.853328  16677.548991  -8840.559415    160.709920
PC45  -1021.186118  24689.710486  12991.255750   -119.364426
PC46 -18745.202824   9833.428691 -18197.380754    -66.963572
PE02  24793.848153 -16157.864848    163.103689     48.274558
PE03  19217.082271  -7200.933613  21337.740118    -33.515582
PE04    148.334905  18276.994245 -23274.417367   -160.978544
PE05  27589.932028   8251.851999   6866.816306     -2.797259
PE07 -19512.632611 -18866.912880  11802.886112    -58.070752
PE08    194.959088 -18025.330986  23478.984478   -110.406116
PE09  19473.381629  18816.897451 -11968.452999    -75.638748
PE10   4093.695890  29142.431398  -3235.008242   -546.610658
PE11  10123.216654  24521.620139 -13136.769752   2419.036160
PE12  -2158.897089  28846.807238   6229.250498   -608.259781
PE13  -9728.647094 -25007.741408  12494.128059    -19.317546
PE14 -21310.053666 -10975.761605   2048.489798    274.890836
PE15   2332.911264 -28759.882186  -6614.418000    -35.089295
PE18  29342.714238   7189.788987 -11438.915980    266.270192
PE19 -21110.728492   5052.989913 -20113.961302  -2134.444933
PE21 -24335.520189   2359.148559 -16679.995630   -539.224750
PE24   9100.430676  14130.071617  24355.569998   -195.305429
PE25  24194.158247  -2053.777604  16937.591974   -607.906000
PE26 -16147.577051  -5811.204619  24111.660650    155.470092
PE27  -9799.013425 -13604.778029 -24387.872175    -92.803153
PE30  10873.956616 -21417.376298 -17298.456888   -314.673675
PE31 -10342.945453  21389.928722  17663.082555      0.157022
PE34  12844.941628 -15659.537096 -21595.693290    -54.708800
PE36  15939.973150   6658.666015 -24041.649484    -82.115573
PG01 -13280.431501   9650.684585  20450.028595    174.210360
PG02 -15010.321512   3229.756900  22170.414070   -578.739777
PG03 -23106.317047  12795.030785   1956.137000   -242.919506
PG04 -18534.177001   4204.242519 -18590.272593     88.485388
PG05  21154.995140   -913.517573 -16282.991138   -133.907386
PG06   5474.689022  24834.255801  -7435.133567    580.153469
PG07  -6591.752835  23143.951996 -10215.734625    132.387590
PG08 -24484.349434  -4605.002457   9680.153158   -130.916628
PG09  -9497.433488  12286.498145 -21624.160609   -118.464106
PG10   1231.898395 -16978.303762  20478.205385    -44.131150
PG11  12755.960355  13818.540581 -18763.063237   -265.211467
PG12  24369.051159  -9147.514496   4786.332745   -397.560467
PG13  22801.697912  13196.693335   3995.019657    543.734570
PG14  -4862.108888  18265.592092  18613.228768    114.113654
PG15  24682.329272   1417.769032   9575.520234     55.618953
PG16 -19077.914162  -4633.342438 -18398.732697   -483.691382
PG17   7084.902827  18653.573905  17905.676139    720.381354
PG18   5198.661522 -24638.863673  -8181.642563   -335.813644
PG19  14166.778511  19250.332827  11701.035435    340.412952
PG20  14687.672652   7006.017325 -20923.626696    424.065256
PG21 -15609.609172   -872.533077  22062.229224    152.431168
PG22 -16449.024904 -18746.073725   9811.831552    508.969859
PG23  13361.761515 -19101.905092  12581.164504     40.516751
PG24  14993.652754  -5049.670597  20935.224752   -249.387269
PG25  18760.396324 -17531.507692  -6537.613274    454.500920
PG26  -9762.249386 -12510.399801 -21420.136645    237.208276
PG27 -23264.439389 -13240.725734  -1217.523083      2.100674
PG28  -5532.849629 -25409.633477  -5434.044415     83.250393
PG29  11760.195723  -9923.342229 -21713.737856   -604.874078
PG30   -292.693614  26372.947824  -1309.307542   -506.110975
PG31 -11198.309379 -18333.056923 -15510.267570   -219.583179
PG32 -10623.829334 -18385.136366  16260.892983   -515.837819
PJ02 -31041.887605  28031.434581  10200.897859     -1.133791
PJ03 -24827.028659  26114.837774  27055.734192      0.029762
PJ04 -31785.609315  21810.955918 -11809.639430     96.406411
PR01  14430.163522  -8405.945189  19288.788021     60.879571
PR02  -5126.351737 -11026.501413  22476.516608    -22.613103
PR03 -21126.953345  -7535.757670  12245.978731     81.054373
PR04 -25110.830121   -175.006069  -4486.888751    194.034974
PR05 -15600.506835   7317.070545 -18805.817162    115.361636
PR07  21591.160615   7209.617387 -11422.277150     59.605094
PR08  25044.527452   -170.090229   4816.913211    -71.556580
PR09  -3928.948245  19962.756842  15353.462043    129.775986
PR11  15883.398455  -8098.267956  18265.152138    -97.868367
PR12  14923.976970 -20632.519500   1425.527522     28.825657
PR13   5758.012252 -20636.792735 -13853.014531    -36.812098
PR14  -8300.612046  -7575.723379 -22882.477582     24.904282
PR15 -16326.780146   9054.061054 -17352.592449     88.034115
PR16 -14842.523523  20651.921271  -1677.942271     16.388798
PR17 -13958.125774 -18459.754956  10680.090200     -2.476730
PR18 -12640.443578  -4143.877571  21782.969406     90.286922
PR19  -6055.992749  11056.138602  22169.795924   -238.905714
PR20   6085.257366  23517.245742   7724.993012    -96.105058
PR21  13991.852158  17760.153238 -11846.286651    -20.766743
PR22  12574.288041   3367.339696 -21913.115903     90.730589
PR24  -7131.013511 -23445.100411  -7037.538558    -15.354232
PR25  13234.626337  19118.657328 -10514.243512   -958.281028
EOF
